{
  "norad_id": 63753,
  "name": "STARLINK-11706 [DTC]",
  "history": [
    {
      "epoch": "2026-03-28T14:32:09.948480Z",
      "apogee_km": 357.8670752042153,
      "perigee_km": 354.6911245715082,
      "latitude_deg": -1.2322110550593459e-06,
      "longitude_deg": 133.87843459180178,
      "height_km": 355.8817019128332,
      "semi_major_axis_km": 6734.4160998878615,
      "eccentricity": 0.0002358,
      "inclination_deg": 43.0042,
      "raan_deg": 177.9436,
      "arg_perigee_deg": 276.1842,
      "mean_anomaly_deg": 83.8757,
      "mean_motion_rev_day": 15.70915562
    }
  ]
}