{"fetched_at":"2026-03-29T02:12:04Z","count":15717,"tles":[{"name":"STARLINK-11706 [DTC]","line1":"1 63753U 25089C   26087.60567070  .00263347  00000+0  19851-2 0  9992","line2":"2 63753  43.0042 177.9436 0002358 276.1842  83.8757 15.70915562 53113","category":"Starlink"}]}